{
  "type": "FeatureCollection",
  "features": [
    {
      "type": "Feature",
      "geometry": {
        "type": "Point",
        "coordinates": [
          29.034414641969693,
          40.98337107592645
        ]
      },
      "properties": {
        "intensity": 0.84,
        "type": "commercial"
      }
    },
    {
      "type": "Feature",
      "geometry": {
        "type": "Point",
        "coordinates": [
          29.03402549509919,
          40.982621163316296
        ]
      },
      "properties": {
        "intensity": 0.89,
        "type": "commercial"
      }
    },
    {
      "type": "Feature",
      "geometry": {
        "type": "Point",
        "coordinates": [
          29.033689180113406,
          40.98362287515363
        ]
      },
      "properties": {
        "intensity": 0.95,
        "type": "commercial"
      }
    },
    {
      "type": "Feature",
      "geometry": {
        "type": "Point",
        "coordinates": [
          29.03321225111057,
          40.98434864474212
        ]
      },
      "properties": {
        "intensity": 0.9,
        "type": "commercial"
      }
    },
    {
      "type": "Feature",
      "geometry": {
        "type": "Point",
        "coordinates": [
          29.03168816195414,
          40.983564566893506
        ]
      },
      "properties": {
        "intensity": 0.98,
        "type": "commercial"
      }
    },
    {
      "type": "Feature",
      "geometry": {
        "type": "Point",
        "coordinates": [
          29.03692377168843,
          40.985975126465334
        ]
      },
      "properties": {
        "intensity": 0.94,
        "type": "commercial"
      }
    },
    {
      "type": "Feature",
      "geometry": {
        "type": "Point",
        "coordinates": [
          29.03789648645813,
          40.98432703167152
        ]
      },
      "properties": {
        "intensity": 0.8,
        "type": "commercial"
      }
    },
    {
      "type": "Feature",
      "geometry": {
        "type": "Point",
        "coordinates": [
          29.036243631356417,
          40.984792882258816
        ]
      },
      "properties": {
        "intensity": 0.83,
        "type": "commercial"
      }
    },
    {
      "type": "Feature",
      "geometry": {
        "type": "Point",
        "coordinates": [
          29.03419577086063,
          40.983784338836074
        ]
      },
      "properties": {
        "intensity": 0.82,
        "type": "commercial"
      }
    },
    {
      "type": "Feature",
      "geometry": {
        "type": "Point",
        "coordinates": [
          29.034834909903463,
          40.985083219031935
        ]
      },
      "properties": {
        "intensity": 0.95,
        "type": "commercial"
      }
    },
    {
      "type": "Feature",
      "geometry": {
        "type": "Point",
        "coordinates": [
          29.032694355067225,
          40.982621228671846
        ]
      },
      "properties": {
        "intensity": 0.7,
        "type": "commercial"
      }
    },
    {
      "type": "Feature",
      "geometry": {
        "type": "Point",
        "coordinates": [
          29.031232436687887,
          40.98259122730823
        ]
      },
      "properties": {
        "intensity": 0.82,
        "type": "commercial"
      }
    },
    {
      "type": "Feature",
      "geometry": {
        "type": "Point",
        "coordinates": [
          29.031417651426967,
          40.98277508580655
        ]
      },
      "properties": {
        "intensity": 0.89,
        "type": "commercial"
      }
    },
    {
      "type": "Feature",
      "geometry": {
        "type": "Point",
        "coordinates": [
          29.029755708156745,
          40.98182987241564
        ]
      },
      "properties": {
        "intensity": 0.86,
        "type": "commercial"
      }
    },
    {
      "type": "Feature",
      "geometry": {
        "type": "Point",
        "coordinates": [
          29.031196715264432,
          40.98121372700971
        ]
      },
      "properties": {
        "intensity": 0.86,
        "type": "commercial"
      }
    },
    {
      "type": "Feature",
      "geometry": {
        "type": "Point",
        "coordinates": [
          29.0361190765918,
          40.983837774789116
        ]
      },
      "properties": {
        "intensity": 0.72,
        "type": "commercial"
      }
    },
    {
      "type": "Feature",
      "geometry": {
        "type": "Point",
        "coordinates": [
          29.037637428891582,
          40.98358434534079
        ]
      },
      "properties": {
        "intensity": 0.76,
        "type": "commercial"
      }
    },
    {
      "type": "Feature",
      "geometry": {
        "type": "Point",
        "coordinates": [
          29.03696157694295,
          40.98438607516431
        ]
      },
      "properties": {
        "intensity": 0.66,
        "type": "commercial"
      }
    },
    {
      "type": "Feature",
      "geometry": {
        "type": "Point",
        "coordinates": [
          29.036319933362517,
          40.98443623529615
        ]
      },
      "properties": {
        "intensity": 0.74,
        "type": "commercial"
      }
    },
    {
      "type": "Feature",
      "geometry": {
        "type": "Point",
        "coordinates": [
          29.037932515710242,
          40.984458271920516
        ]
      },
      "properties": {
        "intensity": 0.66,
        "type": "commercial"
      }
    },
    {
      "type": "Feature",
      "geometry": {
        "type": "Point",
        "coordinates": [
          29.032484212423117,
          40.98542754359965
        ]
      },
      "properties": {
        "intensity": 0.76,
        "type": "commercial"
      }
    },
    {
      "type": "Feature",
      "geometry": {
        "type": "Point",
        "coordinates": [
          29.031919228534317,
          40.9867164954925
        ]
      },
      "properties": {
        "intensity": 0.66,
        "type": "commercial"
      }
    },
    {
      "type": "Feature",
      "geometry": {
        "type": "Point",
        "coordinates": [
          29.031632892990686,
          40.98615247673394
        ]
      },
      "properties": {
        "intensity": 0.77,
        "type": "commercial"
      }
    },
    {
      "type": "Feature",
      "geometry": {
        "type": "Point",
        "coordinates": [
          29.033583963047615,
          40.98614955577527
        ]
      },
      "properties": {
        "intensity": 0.76,
        "type": "commercial"
      }
    },
    {
      "type": "Feature",
      "geometry": {
        "type": "Point",
        "coordinates": [
          29.03189929432694,
          40.98680058756704
        ]
      },
      "properties": {
        "intensity": 0.64,
        "type": "commercial"
      }
    },
    {
      "type": "Feature",
      "geometry": {
        "type": "Point",
        "coordinates": [
          29.03546412440442,
          40.982136814286974
        ]
      },
      "properties": {
        "intensity": 0.65,
        "type": "commercial"
      }
    },
    {
      "type": "Feature",
      "geometry": {
        "type": "Point",
        "coordinates": [
          29.034162623362125,
          40.983151481976044
        ]
      },
      "properties": {
        "intensity": 0.72,
        "type": "commercial"
      }
    },
    {
      "type": "Feature",
      "geometry": {
        "type": "Point",
        "coordinates": [
          29.035018026175916,
          40.98260494743907
        ]
      },
      "properties": {
        "intensity": 0.71,
        "type": "commercial"
      }
    },
    {
      "type": "Feature",
      "geometry": {
        "type": "Point",
        "coordinates": [
          29.034209678969823,
          40.98229193466493
        ]
      },
      "properties": {
        "intensity": 0.73,
        "type": "commercial"
      }
    },
    {
      "type": "Feature",
      "geometry": {
        "type": "Point",
        "coordinates": [
          29.03188092821006,
          40.982806013951
        ]
      },
      "properties": {
        "intensity": 0.55,
        "type": "commercial"
      }
    },
    {
      "type": "Feature",
      "geometry": {
        "type": "Point",
        "coordinates": [
          29.02600212175137,
          40.98341001766251
        ]
      },
      "properties": {
        "intensity": 0.33,
        "type": "residential"
      }
    },
    {
      "type": "Feature",
      "geometry": {
        "type": "Point",
        "coordinates": [
          29.030239499986564,
          40.978799723804386
        ]
      },
      "properties": {
        "intensity": 0.22,
        "type": "residential"
      }
    },
    {
      "type": "Feature",
      "geometry": {
        "type": "Point",
        "coordinates": [
          29.033737558326056,
          40.98338417342989
        ]
      },
      "properties": {
        "intensity": 0.31,
        "type": "residential"
      }
    },
    {
      "type": "Feature",
      "geometry": {
        "type": "Point",
        "coordinates": [
          29.031656915714542,
          40.98189601978248
        ]
      },
      "properties": {
        "intensity": 0.17,
        "type": "residential"
      }
    },
    {
      "type": "Feature",
      "geometry": {
        "type": "Point",
        "coordinates": [
          29.035401021749927,
          40.98210684959299
        ]
      },
      "properties": {
        "intensity": 0.13,
        "type": "residential"
      }
    },
    {
      "type": "Feature",
      "geometry": {
        "type": "Point",
        "coordinates": [
          29.028457611274533,
          40.97884610441487
        ]
      },
      "properties": {
        "intensity": 0.31,
        "type": "residential"
      }
    },
    {
      "type": "Feature",
      "geometry": {
        "type": "Point",
        "coordinates": [
          29.04113205860145,
          40.97813604378815
        ]
      },
      "properties": {
        "intensity": 0.23,
        "type": "residential"
      }
    },
    {
      "type": "Feature",
      "geometry": {
        "type": "Point",
        "coordinates": [
          29.028696215487454,
          40.98257338596183
        ]
      },
      "properties": {
        "intensity": 0.22,
        "type": "residential"
      }
    },
    {
      "type": "Feature",
      "geometry": {
        "type": "Point",
        "coordinates": [
          29.03446017466238,
          40.98187018177398
        ]
      },
      "properties": {
        "intensity": 0.3,
        "type": "residential"
      }
    },
    {
      "type": "Feature",
      "geometry": {
        "type": "Point",
        "coordinates": [
          29.028452356079242,
          40.98139071431632
        ]
      },
      "properties": {
        "intensity": 0.29,
        "type": "residential"
      }
    },
    {
      "type": "Feature",
      "geometry": {
        "type": "Point",
        "coordinates": [
          29.032576759769608,
          40.97817404980738
        ]
      },
      "properties": {
        "intensity": 0.23,
        "type": "residential"
      }
    },
    {
      "type": "Feature",
      "geometry": {
        "type": "Point",
        "coordinates": [
          29.038995807051545,
          40.98293168137416
        ]
      },
      "properties": {
        "intensity": 0.24,
        "type": "residential"
      }
    },
    {
      "type": "Feature",
      "geometry": {
        "type": "Point",
        "coordinates": [
          29.039934989131634,
          40.9873511037294
        ]
      },
      "properties": {
        "intensity": 0.34,
        "type": "residential"
      }
    },
    {
      "type": "Feature",
      "geometry": {
        "type": "Point",
        "coordinates": [
          29.026588674873757,
          40.98724049135123
        ]
      },
      "properties": {
        "intensity": 0.11,
        "type": "residential"
      }
    },
    {
      "type": "Feature",
      "geometry": {
        "type": "Point",
        "coordinates": [
          29.036748133580115,
          40.98715689353044
        ]
      },
      "properties": {
        "intensity": 0.21,
        "type": "residential"
      }
    },
    {
      "type": "Feature",
      "geometry": {
        "type": "Point",
        "coordinates": [
          29.033970020471745,
          40.9785074460608
        ]
      },
      "properties": {
        "intensity": 0.3,
        "type": "residential"
      }
    },
    {
      "type": "Feature",
      "geometry": {
        "type": "Point",
        "coordinates": [
          29.036381076726922,
          40.988625518234
        ]
      },
      "properties": {
        "intensity": 0.19,
        "type": "residential"
      }
    },
    {
      "type": "Feature",
      "geometry": {
        "type": "Point",
        "coordinates": [
          29.03366388023941,
          40.980522544476536
        ]
      },
      "properties": {
        "intensity": 0.24,
        "type": "residential"
      }
    },
    {
      "type": "Feature",
      "geometry": {
        "type": "Point",
        "coordinates": [
          29.025837999634327,
          40.988768765007904
        ]
      },
      "properties": {
        "intensity": 0.32,
        "type": "residential"
      }
    },
    {
      "type": "Feature",
      "geometry": {
        "type": "Point",
        "coordinates": [
          29.040406934647955,
          40.979574402015025
        ]
      },
      "properties": {
        "intensity": 0.26,
        "type": "residential"
      }
    }
  ]
}